#dP2024  3 21  0  0  0.00000000      97 __u+U IGS20 FIT  IAC
## 2306 345600.00000000   900.00000000 60390 0.0000000000000
+  120   C06C07C08C09C10C11C12C13C14C16C19C20C21C22C23C24C25
+        C26C27C28C29C30C32C33C34C35C36C37C38C39C40C41C42C43
+        C44C45C46E02E03E04E05E07E08E09E10E11E12E13E14E15E18
+        E19E21E24E25E26E27E30E31E33E34E36G01G02G03G04G05G06
+        G07G08G09G10G11G12G13G14G15G16G17G18G19G20G21G22G23
+        G24G25G26G27G28G29G30G31G32J02J03J04R01R02R03R04R05
+        R07R08R09R11R12R13R14R15R16R17R18R19R20R21R22R24R25
+        R26  0  0  0  0  0  0  0  0  0  0  0  0  0  0  0  0
++         8  8  7  8  8  7  7  7  7  7  6  6  6  6  6  6  6
++         6  6  6  6  6  6  6  6  6  6  6  6  7  7  6  6  6
++         6  6  6  4  4  4  4  4  4  4  4  4  4  4  4  4  4
++         4  4  4  4  4  4  4  4  4  4  4  4  3  3  3  3  3
++         3  3  3  3  3  3  3  3  3  3  3  4  3  3  3  3  3
++         3  3  3  3  3  3  4  3  3 11 11 11  8  7  7  6  6
++         7  7  6  7  7  8  6  6  6  6  6  7  8  7  7  6  8
++         8  0  0  0  0  0  0  0  0  0  0  0  0  0  0  0  0
%c M  cc GPS ccc cccc cccc cccc cccc ccccc ccccc ccccc ccccc
%c cc cc ccc ccc cccc cccc cccc cccc ccccc ccccc ccccc ccccc
%f  1.2500000  1.025000000  0.00000000000  0.000000000000000
%f  0.0000000  0.000000000  0.00000000000  0.000000000000000
%i    0    0    0    0      0      0      0      0         0
%i    0    0    0    0      0      0      0      0         0
/* INFORMATION & ANALYSIS CENTER (IAC)            FINAL DATA
/* S/V CLOCKS ARE ALIGNED TO GNSS TIME                      
/* G:C1WC2W R:C1PC2P E:C1XC5X C:C2IC6I J:C1CC2S             
/* PCV:IGS20_2290 OL/AL:FES2004  NONE     YN ORB:CoN CLK:CoN
*  2024 03 21 16 30  0.00000000
PC06 -10810.574086  40897.178571   1586.531881    288.900857
PC07  -5431.715448  28490.734465 -30476.119366   -894.358778
PC08 -19094.985592  23607.509321  29153.268748     42.845525
PC09  -7947.968105  41375.191826  -5144.523010   -652.060654
PC10   2990.315897  31148.509002 -27714.272082     35.479370
PC11    712.281748  27780.798293  -2459.525017    471.405226
PC12 -10641.119230  17950.468689 -18495.956457   -217.470969
PC13  -9841.950881  24786.836781  32737.426641    426.341000
PC14   3982.942385  17469.586600  21394.570233    458.084222
PC16 -13671.144100  39625.248474   6304.276505   -409.776022
PC19 -14059.359884 -17860.407799 -16180.077003   -918.009986
PC20   4633.304273 -14966.200988 -23078.286865   -279.570199
PC21 -22340.593524   2622.714617  16556.316923   -961.445341
PC22 -25780.075082 -10722.520698    410.959468    -66.817677
PC23  18586.033766   4397.461615 -20349.041757   -775.965357
PC24 -15631.191365  20835.077535 -10003.149124    951.854010
PC25   2861.559375  17518.155789 -21541.494742    355.087086
PC26 -23913.625452  12558.010592   6925.070914   -265.978646
PC27  14497.008939  -9067.374555  22029.643355    287.855764
PC28  15747.993698  10076.423321  20721.416453    219.656749
PC29  -8055.945495 -26104.786818  -5683.488294    257.593310
PC30   5011.751509 -24512.512947  12323.187625    -41.910758
PC32  22342.675311  -2739.164996 -16460.921926   -587.003855
PC33  14009.004217  17804.792897  16286.678350   -960.548177
PC34  -4015.012807  25346.036086 -11009.502814    395.017089
PC35 -16173.694497  -9622.261603 -20607.294987    405.844916
PC36  -2099.235250 -17763.494014  21438.522650     25.792733
PC37  24250.218959 -11770.671321  -7264.844692   -947.274142
PC38 -25176.366145  25103.591428  22619.587262    144.121887
PC39 -14566.973053  37768.877934  12270.648317     -7.657295
PC40  -8854.389515  22991.411435 -34184.868426    -61.805360
PC41  25564.456359  11154.690825    509.054904   -909.579141
PC42  -6507.914578  14284.972908  23120.493202   -445.959046
PC43   7475.640802  26474.212419   4756.143711     64.990239
PC44 -14343.525530   9497.997036 -21995.708934    420.024645
PC45 -18546.407439  -4300.448844  20388.832455    -76.700160
PC46  15111.288203 -20880.613125  10734.792200   -133.475865
PE02 -29563.001864    844.092064    968.787321    113.031213
PE03 -20571.845030  -4912.100408  20716.380157   -101.842721
PE04   9684.620781 -15159.406147 -23495.019888   -354.943116
PE05 -19222.720395 -21734.300609   5874.101612   4731.166579
PE07   6290.613202  25907.630792  12859.070208   -110.172056
PE08 -10161.377403  14413.309901  23776.769107   -242.459748
PE09  -6298.377473 -25850.336502 -12980.559157   -378.571632
PE10  11908.935891 -27002.836596  -2255.233313   -611.033705
PE11   4512.043622 -26541.767911 -12285.587565   3145.627348
PE12  16819.318816 -23319.388463   6975.282817   -958.609617
PE13  -5029.806622  26720.538363  11723.714484    -20.635239
PE14  17747.387262  10185.737301  11613.336792     72.794155
PE15 -16993.926995  23050.947854  -7512.001600    -92.513978
PE18 -24262.399524 -13895.817715 -16350.078574    460.978530
PE19  20916.547186   7259.752926 -19633.555003   -390.862120
PE21  21284.539076  10912.743490 -17446.779797   -585.113707
PE24    282.368805 -16888.860707  24286.148117   -663.591529
PE25 -20948.821907 -11112.192071  17709.021126      2.388282
PE26  10226.648504  14226.454177  23864.591493    402.930883
PE27    216.146452  16833.805834 -24351.362772   -304.385342
PE30 -20919.079114  12665.326549 -16685.235552   -117.732122
PE31  20748.701512 -12762.429972  16818.508407    -18.819266
PE33  18706.766626  -5336.487502  22312.764253      9.326347
PE34 -18816.456892   5951.017655 -22064.884236   -101.227786
PE36  -9681.009341 -14704.639693 -23788.559891   -202.355289
PG01  11008.589698 -23949.989172  -1365.276859    175.189911
PG02  14729.663706 -19820.487506   9894.670908   -466.607473
PG03  17309.515910 -12141.092392 -16145.480587    265.350829
PG04   8045.898154 -14270.751996 -20863.544642    320.255935
PG05 -25641.892712   5916.475567   3769.292620   -166.224088
PG06  -9917.304402 -11844.429276 -21520.221451    358.067289
PG07   3108.072679 -24123.489880  10577.703967    -89.436750
PG08  14553.910505  -5815.730509  21379.778266     70.695870
PG09  -4340.397146 -22361.169315 -13693.814776    132.406819
PG10  15790.424977  11143.722121  18569.065874     -1.655187
PG11 -16581.140863    698.186043 -20702.628018   -613.484572
PG12 -18814.287657  10971.708119 -15446.367114   -489.274675
PG13 -17200.493445  -4424.287184  19618.613222    636.071195
PG14 -11713.835062 -13570.740334  19683.223054    356.270763
PG15 -13897.055328   7671.564124  20823.604750    140.024035
PG16  26794.855025    759.634269   -845.717931   -335.865514
PG17 -12352.477420 -23351.007869   2164.542779    712.827742
PG18  -3367.417387  23773.011380  11159.113165   -579.878266
PG19 -16711.709411 -19434.779096  -7845.380239    457.112620
PG20 -25036.965805    262.504705  -8565.217246    383.105025
PG21  16194.145293 -15146.879887  14294.052233    130.466506
PG22 -18457.104383 -11157.218401  15730.509283     12.506473
PG23   2475.820367  14661.430316  22035.551180    182.270326
PG24 -15008.052603  18768.268793  10432.882733   -449.366212
PG25  -8084.439761  15391.610780 -20348.139604    491.878448
PG26  23233.455054   5453.755017 -12180.930898    176.795981
PG27  19237.823357   7045.910789  16850.375964    -13.399023
PG28   9140.425276  14496.261380 -20309.334180   -172.807625
PG29    738.658891  21785.792392 -15153.982833   -604.207628
PG30  -5531.903615 -18901.032084  17832.648020   -416.604944
PG31  15080.612112   4194.717010 -21698.319764   -228.005387
PG32  15763.138455  21495.676055   -723.097592   -616.485954
PJ02 -32553.087812  15610.123197 -17127.491606     -3.154203
PJ03 -23205.197317  31414.590149 -11247.273967     -0.169782
PJ04 -26362.037321  26565.275147  25302.214446     50.635479
PR01 -13968.001426 -16359.825437 -13714.038826     80.298873
PR02 -21765.059852 -12834.163290   3298.873868    -22.617384
PR03 -17694.019837  -1353.807036  18351.401741     96.778426
PR04  -4010.248939  10192.895568  23072.581899    228.562658
PR05  11744.020963  16602.737246  15429.394503    128.760012
PR07  17238.177936    850.691417 -18755.550827     78.446982
PR08   3764.978731 -10413.587037 -22910.877012    -74.800676
PR09  17391.541926   1068.290185 -18579.127404    176.595563
PR11  17004.614905 -15008.580097  11662.695125     30.519934
PR12   -978.133390 -11695.821594  22668.484079     38.067580
PR13 -15560.051161  -2724.276988  20008.373036    -45.508546
PR14 -23217.700129   9756.022783   4123.979627     26.242872
PR15 -16012.207254  15076.033939 -12913.160500     81.168107
PR16    661.192729  11681.291012 -22665.421693     24.195824
PR17 -10443.155888   8793.260920 -21533.311938     70.975776
PR18  -6411.771953  22469.617153 -10286.264957    133.277525
PR19   -658.315758  25081.568062   4610.234404   -270.189555
PR20   8146.158660  11826.758262  21101.385019   -110.110906
PR21  10429.488882  -8874.040411  21523.262807    -86.346440
PR22   6805.276954 -22774.934308   9257.371347    113.935350
PR24  -9224.187320 -10898.768027 -21124.674644    -48.656701
PR25  11071.064577  -8571.142002  21330.184466    -24.134632
PR26   4685.488543  -9850.786198 -23032.604261    -29.102462
EOF
